STARLINK-36550          
1 67495U 26012C   26033.50002314 -.01010236  00000+0 -53003-2 0  9998
2 67495  42.9961 157.1791 0002118 283.4203  84.3733 15.82354629  3410
STARLINK-36534          
1 67496U 26012D   26033.50002314 -.00065226  00000+0 -30956-3 0  9990
2 67496  42.9964 157.1583 0001416 272.1479 103.9096 15.82016483  3359
STARLINK-36555          
1 67497U 26012E   26033.50002314 -.00021270  00000+0 -98802-4 0  9997
2 67497  42.9963 157.1699 0001204 286.7992  84.7035 15.82001357  3413
STARLINK-36081          
1 67498U 26012F   26033.50002314 -.01663599  00000+0 -89240-2 0  9999
2 67498  42.9964 157.1440 0001616 282.7440  98.9797 15.82399201  3353
STARLINK-36558          
1 67499U 26012G   26033.50002314 -.01687239  00000+0 -90702-2 0  9992
2 67499  42.9963 157.1369 0001554 282.6664 101.9498 15.82401850  3415
STARLINK-36557          
1 67500U 26012H   26033.50002314  .00132363  00000+0  62398-3 0  9996
2 67500  42.9964 157.1237 0000896 266.5504 122.9172 15.81933145  3413
STARLINK-36433          
1 67501U 26012J   26033.50002314 -.00137739  00000+0 -66048-3 0  9997
2 67501  42.9962 157.1139 0001799 273.0415 120.5787 15.82064730  3412
STARLINK-36554          
1 67502U 26012K   26031.54141203 -.00542080  00000+0 -18363-2 0  9996
2 67502  42.9959 169.1781 0002304 283.2379  76.8239 15.90127469  2029
STARLINK-36552          
1 67503U 26012L   26033.50002314 -.00455766  00000+0 -22496-2 0  9990
2 67503  42.9964 157.0919 0001434 280.9075 121.4419 15.82280512  3416
STARLINK-36512          
1 67504U 26012M   26033.50002314 -.00690572  00000+0 -34731-2 0  9992
2 67504  42.9962 157.0784 0001712 268.7858 138.7941 15.82456359  3412
STARLINK-36545          
1 67505U 26012N   26033.50002314 -.00750426  00000+0 -37880-2 0  9996
2 67505  42.9963 157.0705 0001678 266.6692 143.9298 15.82525393  3419
STARLINK-36553          
1 67506U 26012P   26033.50002314 -.00983940  00000+0 -50620-2 0  9993
2 67506  42.9965 157.0607 0001137 269.6849 145.1404 15.82711473  3419
