CCSDS_OMM_VERS = 2.0
CREATION_DATE  = 
ORIGINATOR     = 

OBJECT_NAME    = STARLINK-36550
OBJECT_ID      = 2026-012C
CENTER_NAME    = EARTH
REF_FRAME      = TEME
TIME_SYSTEM    = UTC
MEAN_ELEMENT_THEORY = SGP/SGP4

EPOCH          = 2026-02-02T12:00:01.999296
MEAN_MOTION    = 15.82354629
ECCENTRICITY   = .0002118
INCLINATION    = 42.9961
RA_OF_ASC_NODE = 157.1791
ARG_OF_PERICENTER = 283.4203
MEAN_ANOMALY   = 84.3733

EPHEMERIS_TYPE = 0
CLASSIFICATION_TYPE = U
NORAD_CAT_ID   = 67495
ELEMENT_SET_NO = 999
REV_AT_EPOCH   = 341
BSTAR          = -.53003E-2
MEAN_MOTION_DOT = -.1010236E-1
MEAN_MOTION_DDOT = 0

CCSDS_OMM_VERS = 2.0
CREATION_DATE  = 
ORIGINATOR     = 

OBJECT_NAME    = STARLINK-36534
OBJECT_ID      = 2026-012D
CENTER_NAME    = EARTH
REF_FRAME      = TEME
TIME_SYSTEM    = UTC
MEAN_ELEMENT_THEORY = SGP/SGP4

EPOCH          = 2026-02-02T12:00:01.999296
MEAN_MOTION    = 15.82016483
ECCENTRICITY   = .0001416
INCLINATION    = 42.9964
RA_OF_ASC_NODE = 157.1583
ARG_OF_PERICENTER = 272.1479
MEAN_ANOMALY   = 103.9096

EPHEMERIS_TYPE = 0
CLASSIFICATION_TYPE = U
NORAD_CAT_ID   = 67496
ELEMENT_SET_NO = 999
REV_AT_EPOCH   = 335
BSTAR          = -.30956E-3
MEAN_MOTION_DOT = -.65226E-3
MEAN_MOTION_DDOT = 0

CCSDS_OMM_VERS = 2.0
CREATION_DATE  = 
ORIGINATOR     = 

OBJECT_NAME    = STARLINK-36555
OBJECT_ID      = 2026-012E
CENTER_NAME    = EARTH
REF_FRAME      = TEME
TIME_SYSTEM    = UTC
MEAN_ELEMENT_THEORY = SGP/SGP4

EPOCH          = 2026-02-02T12:00:01.999296
MEAN_MOTION    = 15.82001357
ECCENTRICITY   = .0001204
INCLINATION    = 42.9963
RA_OF_ASC_NODE = 157.1699
ARG_OF_PERICENTER = 286.7992
MEAN_ANOMALY   = 84.7035

EPHEMERIS_TYPE = 0
CLASSIFICATION_TYPE = U
NORAD_CAT_ID   = 67497
ELEMENT_SET_NO = 999
REV_AT_EPOCH   = 341
BSTAR          = -.98802E-4
MEAN_MOTION_DOT = -.2127E-3
MEAN_MOTION_DDOT = 0

CCSDS_OMM_VERS = 2.0
CREATION_DATE  = 
ORIGINATOR     = 

OBJECT_NAME    = STARLINK-36081
OBJECT_ID      = 2026-012F
CENTER_NAME    = EARTH
REF_FRAME      = TEME
TIME_SYSTEM    = UTC
MEAN_ELEMENT_THEORY = SGP/SGP4

EPOCH          = 2026-02-02T12:00:01.999296
MEAN_MOTION    = 15.82399201
ECCENTRICITY   = .0001616
INCLINATION    = 42.9964
RA_OF_ASC_NODE = 157.1440
ARG_OF_PERICENTER = 282.7440
MEAN_ANOMALY   = 98.9797

EPHEMERIS_TYPE = 0
CLASSIFICATION_TYPE = U
NORAD_CAT_ID   = 67498
ELEMENT_SET_NO = 999
REV_AT_EPOCH   = 335
BSTAR          = -.8924E-2
MEAN_MOTION_DOT = -.1663599E-1
MEAN_MOTION_DDOT = 0

CCSDS_OMM_VERS = 2.0
CREATION_DATE  = 
ORIGINATOR     = 

OBJECT_NAME    = STARLINK-36558
OBJECT_ID      = 2026-012G
CENTER_NAME    = EARTH
REF_FRAME      = TEME
TIME_SYSTEM    = UTC
MEAN_ELEMENT_THEORY = SGP/SGP4

EPOCH          = 2026-02-02T12:00:01.999296
MEAN_MOTION    = 15.82401850
ECCENTRICITY   = .0001554
INCLINATION    = 42.9963
RA_OF_ASC_NODE = 157.1369
ARG_OF_PERICENTER = 282.6664
MEAN_ANOMALY   = 101.9498

EPHEMERIS_TYPE = 0
CLASSIFICATION_TYPE = U
NORAD_CAT_ID   = 67499
ELEMENT_SET_NO = 999
REV_AT_EPOCH   = 341
BSTAR          = -.90702E-2
MEAN_MOTION_DOT = -.1687239E-1
MEAN_MOTION_DDOT = 0

CCSDS_OMM_VERS = 2.0
CREATION_DATE  = 
ORIGINATOR     = 

OBJECT_NAME    = STARLINK-36557
OBJECT_ID      = 2026-012H
CENTER_NAME    = EARTH
REF_FRAME      = TEME
TIME_SYSTEM    = UTC
MEAN_ELEMENT_THEORY = SGP/SGP4

EPOCH          = 2026-02-02T12:00:01.999296
MEAN_MOTION    = 15.81933145
ECCENTRICITY   = .0000896
INCLINATION    = 42.9964
RA_OF_ASC_NODE = 157.1237
ARG_OF_PERICENTER = 266.5504
MEAN_ANOMALY   = 122.9172

EPHEMERIS_TYPE = 0
CLASSIFICATION_TYPE = U
NORAD_CAT_ID   = 67500
ELEMENT_SET_NO = 999
REV_AT_EPOCH   = 341
BSTAR          = .62398E-3
MEAN_MOTION_DOT = .132363E-2
MEAN_MOTION_DDOT = 0

CCSDS_OMM_VERS = 2.0
CREATION_DATE  = 
ORIGINATOR     = 

OBJECT_NAME    = STARLINK-36433
OBJECT_ID      = 2026-012J
CENTER_NAME    = EARTH
REF_FRAME      = TEME
TIME_SYSTEM    = UTC
MEAN_ELEMENT_THEORY = SGP/SGP4

EPOCH          = 2026-02-02T12:00:01.999296
MEAN_MOTION    = 15.82064730
ECCENTRICITY   = .0001799
INCLINATION    = 42.9962
RA_OF_ASC_NODE = 157.1139
ARG_OF_PERICENTER = 273.0415
MEAN_ANOMALY   = 120.5787

EPHEMERIS_TYPE = 0
CLASSIFICATION_TYPE = U
NORAD_CAT_ID   = 67501
ELEMENT_SET_NO = 999
REV_AT_EPOCH   = 341
BSTAR          = -.66048E-3
MEAN_MOTION_DOT = -.137739E-2
MEAN_MOTION_DDOT = 0

CCSDS_OMM_VERS = 2.0
CREATION_DATE  = 
ORIGINATOR     = 

OBJECT_NAME    = STARLINK-36554
OBJECT_ID      = 2026-012K
CENTER_NAME    = EARTH
REF_FRAME      = TEME
TIME_SYSTEM    = UTC
MEAN_ELEMENT_THEORY = SGP/SGP4

EPOCH          = 2026-01-31T12:59:37.999392
MEAN_MOTION    = 15.90127469
ECCENTRICITY   = .00023045
INCLINATION    = 42.9959
RA_OF_ASC_NODE = 169.1781
ARG_OF_PERICENTER = 283.2379
MEAN_ANOMALY   = 76.8239

EPHEMERIS_TYPE = 0
CLASSIFICATION_TYPE = U
NORAD_CAT_ID   = 67502
ELEMENT_SET_NO = 999
REV_AT_EPOCH   = 202
BSTAR          = -.18362903E-2
MEAN_MOTION_DOT = -.54208E-2
MEAN_MOTION_DDOT = 0

CCSDS_OMM_VERS = 2.0
CREATION_DATE  = 
ORIGINATOR     = 

OBJECT_NAME    = STARLINK-36552
OBJECT_ID      = 2026-012L
CENTER_NAME    = EARTH
REF_FRAME      = TEME
TIME_SYSTEM    = UTC
MEAN_ELEMENT_THEORY = SGP/SGP4

EPOCH          = 2026-02-02T12:00:01.999296
MEAN_MOTION    = 15.82280512
ECCENTRICITY   = .0001434
INCLINATION    = 42.9964
RA_OF_ASC_NODE = 157.0919
ARG_OF_PERICENTER = 280.9075
MEAN_ANOMALY   = 121.4419

EPHEMERIS_TYPE = 0
CLASSIFICATION_TYPE = U
NORAD_CAT_ID   = 67503
ELEMENT_SET_NO = 999
REV_AT_EPOCH   = 341
BSTAR          = -.22496E-2
MEAN_MOTION_DOT = -.455766E-2
MEAN_MOTION_DDOT = 0

CCSDS_OMM_VERS = 2.0
CREATION_DATE  = 
ORIGINATOR     = 

OBJECT_NAME    = STARLINK-36512
OBJECT_ID      = 2026-012M
CENTER_NAME    = EARTH
REF_FRAME      = TEME
TIME_SYSTEM    = UTC
MEAN_ELEMENT_THEORY = SGP/SGP4

EPOCH          = 2026-02-02T12:00:01.999296
MEAN_MOTION    = 15.82456359
ECCENTRICITY   = .0001712
INCLINATION    = 42.9962
RA_OF_ASC_NODE = 157.0784
ARG_OF_PERICENTER = 268.7858
MEAN_ANOMALY   = 138.7941

EPHEMERIS_TYPE = 0
CLASSIFICATION_TYPE = U
NORAD_CAT_ID   = 67504
ELEMENT_SET_NO = 999
REV_AT_EPOCH   = 341
BSTAR          = -.34731E-2
MEAN_MOTION_DOT = -.690572E-2
MEAN_MOTION_DDOT = 0

CCSDS_OMM_VERS = 2.0
CREATION_DATE  = 
ORIGINATOR     = 

OBJECT_NAME    = STARLINK-36545
OBJECT_ID      = 2026-012N
CENTER_NAME    = EARTH
REF_FRAME      = TEME
TIME_SYSTEM    = UTC
MEAN_ELEMENT_THEORY = SGP/SGP4

EPOCH          = 2026-02-02T12:00:01.999296
MEAN_MOTION    = 15.82525393
ECCENTRICITY   = .0001678
INCLINATION    = 42.9963
RA_OF_ASC_NODE = 157.0705
ARG_OF_PERICENTER = 266.6692
MEAN_ANOMALY   = 143.9298

EPHEMERIS_TYPE = 0
CLASSIFICATION_TYPE = U
NORAD_CAT_ID   = 67505
ELEMENT_SET_NO = 999
REV_AT_EPOCH   = 341
BSTAR          = -.3788E-2
MEAN_MOTION_DOT = -.750426E-2
MEAN_MOTION_DDOT = 0

CCSDS_OMM_VERS = 2.0
CREATION_DATE  = 
ORIGINATOR     = 

OBJECT_NAME    = STARLINK-36553
OBJECT_ID      = 2026-012P
CENTER_NAME    = EARTH
REF_FRAME      = TEME
TIME_SYSTEM    = UTC
MEAN_ELEMENT_THEORY = SGP/SGP4

EPOCH          = 2026-02-02T12:00:01.999296
MEAN_MOTION    = 15.82711473
ECCENTRICITY   = .0001137
INCLINATION    = 42.9965
RA_OF_ASC_NODE = 157.0607
ARG_OF_PERICENTER = 269.6849
MEAN_ANOMALY   = 145.1404

EPHEMERIS_TYPE = 0
CLASSIFICATION_TYPE = U
NORAD_CAT_ID   = 67506
ELEMENT_SET_NO = 999
REV_AT_EPOCH   = 341
BSTAR          = -.5062E-2
MEAN_MOTION_DOT = -.98394E-2
MEAN_MOTION_DDOT = 0

